FALCONSAT-6             
1 43815U 18099BK  26068.72544389  .00005029  00000+0  19477-3 0  9998
2 43815  97.3865 145.8165 0014370 297.0944 181.0714 15.26532865398556
STARLINK-33683          
1 63573U 25076E   26068.08108751  .00028935  00000+0  10566-2 0  9992
2 63573  43.0035 325.4548 0002167 261.0365  99.0241 15.27589005 51734
